start=new Date('2021-10-16T00:00:00.000Z').valueOf();
sats=[{"PERIOD":"95.593","LAUNCH_DATE":"2021-03-04","OBJECT_TYPE":"PAYLOAD","SEMIMAJOR_AXIS":"6925.388","COUNTRY_CODE":"US","REF_FRAME":"TEME","DECAY_DATE":null,"TLE_LINE1":"1 47760U 21017AQ  21288.55184495 -.00001291  00000-0 -67810-4 0  9998","OBJECT_NAME":"STARLINK-2178","MEAN_MOTION_DDOT":"0.0000000000000","INCLINATION":"53.0552","RA_OF_ASC_NODE":"231.8144","TIME_SYSTEM":"UTC","ARG_OF_PERICENTER":"80.3743","TLE_LINE2":"2 47760  53.0552 231.8144 0001351  80.3743 279.7399 15.06387179 35533","CLASSIFICATION_TYPE":"U","RCS_SIZE":"LARGE","MEAN_MOTION":"15.06387179","CENTER_NAME":"EARTH","ECCENTRICITY":"0.00013510","MEAN_ANOMALY":"279.7399","OBJECT_ID":"2021-017AQ","EPHEMERIS_TYPE":"0","APOAPSIS":"548.188","BSTAR":"-0.00006781000000","PERIAPSIS":"546.317","ELEMENT_SET_NO":"999","NORAD_CAT_ID":"47760","EPOCH":"2021-10-15T13:14:39.403680","SITE":"AFETR","FILE":"3165217","GP_ID":"187280593","MEAN_MOTION_DOT":"-0.00001291","MEAN_ELEMENT_THEORY":"SGP4","REV_AT_EPOCH":"3553"},{"LAUNCH_DATE":"2021-03-04","PERIOD":"95.593","RA_OF_ASC_NODE":"222.0189","ARG_OF_PERICENTER":"74.2480","TIME_SYSTEM":"UTC","MEAN_MOTION_DDOT":"0.0000000000000","INCLINATION":"53.0546","COUNTRY_CODE":"US","TLE_LINE1":"1 47761U 21017AR  21288.51589609 -.00001242  00000-0 -64523-4 0  9995","DECAY_DATE":null,"OBJECT_NAME":"STARLINK-2179","REF_FRAME":"TEME","OBJECT_TYPE":"PAYLOAD","SEMIMAJOR_AXIS":"6925.379","EPOCH":"2021-10-15T12:22:53.422176","FILE":"3165217","SITE":"AFETR","APOAPSIS":"548.323","EPHEMERIS_TYPE":"0","PERIAPSIS":"546.165","ELEMENT_SET_NO":"999","NORAD_CAT_ID":"47761","BSTAR":"-0.00006452300000","ECCENTRICITY":"0.00015580","MEAN_ANOMALY":"285.8680","OBJECT_ID":"2021-017AR","RCS_SIZE":"LARGE","CLASSIFICATION_TYPE":"U","TLE_LINE2":"2 47761  53.0546 222.0189 0001558  74.2480 285.8680 15.06390124 35644","CENTER_NAME":"EARTH","MEAN_MOTION":"15.06390124","REV_AT_EPOCH":"3564","MEAN_MOTION_DOT":"-0.00001242","MEAN_ELEMENT_THEORY":"SGP4","GP_ID":"187279341"},{"BSTAR":"-0.00027257000000","PERIAPSIS":"546.282","ELEMENT_SET_NO":"999","NORAD_CAT_ID":"47762","EPHEMERIS_TYPE":"0","APOAPSIS":"548.272","SITE":"AFETR","FILE":"3164360","EPOCH":"2021-10-15T06:37:10.292448","MEAN_MOTION":"15.06379364","CENTER_NAME":"EARTH","CLASSIFICATION_TYPE":"U","TLE_LINE2":"2 47762  53.0561 238.0964 0001437  54.4507 305.6616 15.06379364 35414","RCS_SIZE":"LARGE","OBJECT_ID":"2021-017AS","ECCENTRICITY":"0.00014370","MEAN_ANOMALY":"305.6616","MEAN_ELEMENT_THEORY":"SGP4","MEAN_MOTION_DOT":"-0.00004337","REV_AT_EPOCH":"3541","GP_ID":"187240397","LAUNCH_DATE":"2021-03-04","PERIOD":"95.593","INCLINATION":"53.0561","MEAN_MOTION_DDOT":"0.0000000000000","TIME_SYSTEM":"UTC","ARG_OF_PERICENTER":"54.4507","RA_OF_ASC_NODE":"238.0964","SEMIMAJOR_AXIS":"6925.412","OBJECT_TYPE":"PAYLOAD","REF_FRAME":"TEME","TLE_LINE1":"1 47762U 21017AS  21288.27581357 -.00004337  00000-0 -27257-3 0  9991","OBJECT_NAME":"STARLINK-2180","DECAY_DATE":null,"COUNTRY_CODE":"US"},{"EPOCH":"2021-10-15T13:23:15.805248","FILE":"3165217","SITE":"AFETR","APOAPSIS":"548.484","EPHEMERIS_TYPE":"0","PERIAPSIS":"545.991","NORAD_CAT_ID":"47763","ELEMENT_SET_NO":"999","BSTAR":"0.00014253000000","ECCENTRICITY":"0.00018000","MEAN_ANOMALY":"288.9216","OBJECT_ID":"2021-017AT","RCS_SIZE":"LARGE","TLE_LINE2":"2 47763  53.0555 226.7174 0001800  71.1968 288.9216 15.06392258 35579","CLASSIFICATION_TYPE":"U","CENTER_NAME":"EARTH","MEAN_MOTION":"15.06392258","REV_AT_EPOCH":"3557","MEAN_MOTION_DOT":"0.00001842","MEAN_ELEMENT_THEORY":"SGP4","GP_ID":"187280343","LAUNCH_DATE":"2021-03-04","PERIOD":"95.593","RA_OF_ASC_NODE":"226.7174","ARG_OF_PERICENTER":"71.1968","TIME_SYSTEM":"UTC","MEAN_MOTION_DDOT":"0.0000000000000","INCLINATION":"53.0555","COUNTRY_CODE":"US","OBJECT_NAME":"STARLINK-2181","TLE_LINE1":"1 47763U 21017AT  21288.55782182  .00001842  00000-0  14253-3 0  9990","DECAY_DATE":null,"REF_FRAME":"TEME","OBJECT_TYPE":"PAYLOAD","SEMIMAJOR_AXIS":"6925.372"},{"EPHEMERIS_TYPE":"0","APOAPSIS":"548.390","BSTAR":"-0.00006518700000","PERIAPSIS":"546.089","NORAD_CAT_ID":"47764","ELEMENT_SET_NO":"999","EPOCH":"2021-10-15T03:06:14.833440","SITE":"AFETR","FILE":"3164360","CLASSIFICATION_TYPE":"U","TLE_LINE2":"2 47764  53.0563 238.7442 0001661  69.7431 290.3736 15.06391493 35421","RCS_SIZE":"LARGE","MEAN_MOTION":"15.06391493","CENTER_NAME":"EARTH","MEAN_ANOMALY":"290.3736","ECCENTRICITY":"0.00016610","OBJECT_ID":"2021-017AU","MEAN_MOTION_DOT":"-0.00001252","MEAN_ELEMENT_THEORY":"SGP4","REV_AT_EPOCH":"3542","GP_ID":"187239395","LAUNCH_DATE":"2021-03-04","PERIOD":"95.593","MEAN_MOTION_DDOT":"0.0000000000000","INCLINATION":"53.0563","RA_OF_ASC_NODE":"238.7442","TIME_SYSTEM":"UTC","ARG_OF_PERICENTER":"69.7431","OBJECT_TYPE":"PAYLOAD","SEMIMAJOR_AXIS":"6925.375","COUNTRY_CODE":"US","REF_FRAME":"TEME","TLE_LINE1":"1 47764U 21017AU  21288.12933835 -.00001252  00000-0 -65187-4 0  9997","DECAY_DATE":null,"OBJECT_NAME":"STARLINK-2182"},{"TLE_LINE2":"2 47765  53.0555 217.0898 0001696  66.6303 293.4864 15.06376488 35715","CLASSIFICATION_TYPE":"U","RCS_SIZE":"LARGE","MEAN_MOTION":"15.06376488","CENTER_NAME":"EARTH","MEAN_ANOMALY":"293.4864","ECCENTRICITY":"0.00016960","OBJECT_ID":"2021-017AV","EPHEMERIS_TYPE":"0","APOAPSIS":"548.460","BSTAR":"-0.00013574000000","PERIAPSIS":"546.111","ELEMENT_SET_NO":"999","NORAD_CAT_ID":"47765","EPOCH":"2021-10-15T11:54:22.963104","SITE":"AFETR","FILE":"3165217","GP_ID":"187279841","MEAN_MOTION_DOT":"-0.00002301","MEAN_ELEMENT_THEORY":"SGP4","REV_AT_EPOCH":"3571","PERIOD":"95.594","LAUNCH_DATE":"2021-03-04","OBJECT_TYPE":"PAYLOAD","SEMIMAJOR_AXIS":"6925.421","COUNTRY_CODE":"US","REF_FRAME":"TEME","TLE_LINE1":"1 47765U 21017AV  21288.49609911 -.00002301  00000-0 -13574-3 0  9991","DECAY_DATE":null,"OBJECT_NAME":"STARLINK-2183","MEAN_MOTION_DDOT":"0.0000000000000","INCLINATION":"53.0555","RA_OF_ASC_NODE":"217.0898","TIME_SYSTEM":"UTC","ARG_OF_PERICENTER":"66.6303"},{"GP_ID":"187240897","MEAN_ELEMENT_THEORY":"SGP4","MEAN_MOTION_DOT":"-0.00001702","REV_AT_EPOCH":"3538","MEAN_MOTION":"15.06397315","CENTER_NAME":"EARTH","TLE_LINE2":"2 47766  53.0558 238.0656 0001600  70.6333 289.4829 15.06397315 35388","CLASSIFICATION_TYPE":"U","RCS_SIZE":"LARGE","OBJECT_ID":"2021-017AW","ECCENTRICITY":"0.00016000","MEAN_ANOMALY":"289.4829","BSTAR":"-0.00009542100000","NORAD_CAT_ID":"47766","PERIAPSIS":"546.114","ELEMENT_SET_NO":"999","EPHEMERIS_TYPE":"0","APOAPSIS":"548.330","SITE":"AFETR","FILE":"3164360","EPOCH":"2021-10-15T06:43:51.076992","SEMIMAJOR_AXIS":"6925.357","OBJECT_TYPE":"PAYLOAD","REF_FRAME":"TEME","OBJECT_NAME":"STARLINK-2184","TLE_LINE1":"1 47766U 21017AW  21288.28045228 -.00001702  00000-0 -95421-4 0  9990","DECAY_DATE":null,"COUNTRY_CODE":"US","MEAN_MOTION_DDOT":"0.0000000000000","INCLINATION":"53.0558","TIME_SYSTEM":"UTC","ARG_OF_PERICENTER":"70.6333","RA_OF_ASC_NODE":"238.0656","PERIOD":"95.592","LAUNCH_DATE":"2021-03-04"},{"MEAN_ANOMALY":"281.5889","ECCENTRICITY":"0.00015610","OBJECT_ID":"2021-017AX","TLE_LINE2":"2 47767  53.0560 222.9527 0001561  78.5275 281.5889 15.06391007 35661","CLASSIFICATION_TYPE":"U","RCS_SIZE":"LARGE","MEAN_MOTION":"15.06391007","CENTER_NAME":"EARTH","EPOCH":"2021-10-15T07:20:20.849568","SITE":"AFETR","FILE":"3164360","EPHEMERIS_TYPE":"0","APOAPSIS":"548.322","BSTAR":"-0.00009289000000","ELEMENT_SET_NO":"999","PERIAPSIS":"546.160","NORAD_CAT_ID":"47767","GP_ID":"187239645","REV_AT_EPOCH":"3566","MEAN_MOTION_DOT":"-0.00001664","MEAN_ELEMENT_THEORY":"SGP4","PERIOD":"95.593","LAUNCH_DATE":"2021-03-04","COUNTRY_CODE":"US","REF_FRAME":"TEME","TLE_LINE1":"1 47767U 21017AX  21288.30579687 -.00001664  00000-0 -92890-4 0  9999","DECAY_DATE":null,"OBJECT_NAME":"STARLINK-2185","OBJECT_TYPE":"PAYLOAD","SEMIMAJOR_AXIS":"6925.376","RA_OF_ASC_NODE":"222.9527","TIME_SYSTEM":"UTC","ARG_OF_PERICENTER":"78.5275","INCLINATION":"53.0560","MEAN_MOTION_DDOT":"0.0000000000000"},{"MEAN_MOTION_DDOT":"0.0000000000000","INCLINATION":"53.0561","ARG_OF_PERICENTER":"65.3102","TIME_SYSTEM":"UTC","RA_OF_ASC_NODE":"236.7598","SEMIMAJOR_AXIS":"6925.380","OBJECT_TYPE":"PAYLOAD","OBJECT_NAME":"STARLINK-2189","TLE_LINE1":"1 47768U 21017AY  21288.57439388 -.00001433  00000-0 -77356-4 0  9996","DECAY_DATE":null,"REF_FRAME":"TEME","COUNTRY_CODE":"US","LAUNCH_DATE":"2021-03-04","PERIOD":"95.593","MEAN_ELEMENT_THEORY":"SGP4","MEAN_MOTION_DOT":"-0.00001433","REV_AT_EPOCH":"3546","GP_ID":"187280594","PERIAPSIS":"546.179","ELEMENT_SET_NO":"999","NORAD_CAT_ID":"47768","BSTAR":"-0.00007735600000","APOAPSIS":"548.312","EPHEMERIS_TYPE":"0","FILE":"3165217","SITE":"AFETR","EPOCH":"2021-10-15T13:47:07.631232","CENTER_NAME":"EARTH","MEAN_MOTION":"15.06389599","RCS_SIZE":"LARGE","TLE_LINE2":"2 47768  53.0561 236.7598 0001540  65.3102 294.8047 15.06389599 35468","CLASSIFICATION_TYPE":"U","OBJECT_ID":"2021-017AY","ECCENTRICITY":"0.00015400","MEAN_ANOMALY":"294.8047"},{"ARG_OF_PERICENTER":"69.4116","TIME_SYSTEM":"UTC","RA_OF_ASC_NODE":"200.9481","INCLINATION":"53.0503","MEAN_MOTION_DDOT":"0.0000000000000","TLE_LINE1":"1 47769U 21017AZ  21288.75364359  .00001278  00000-0  10474-3 0  9994","OBJECT_NAME":"STARLINK-2192","DECAY_DATE":null,"REF_FRAME":"TEME","COUNTRY_CODE":"US","SEMIMAJOR_AXIS":"6925.382","OBJECT_TYPE":"PAYLOAD","LAUNCH_DATE":"2021-03-04","PERIOD":"95.593","REV_AT_EPOCH":"3600","MEAN_ELEMENT_THEORY":"SGP4","MEAN_MOTION_DOT":"0.00001278","GP_ID":"187279342","FILE":"3165217","SITE":"AFETR","EPOCH":"2021-10-15T18:05:14.806176","PERIAPSIS":"546.114","NORAD_CAT_ID":"47769","ELEMENT_SET_NO":"999","BSTAR":"0.00010474000000","APOAPSIS":"548.380","EPHEMERIS_TYPE":"0","OBJECT_ID":"2021-017AZ","MEAN_ANOMALY":"290.7049","ECCENTRICITY":"0.00016360","CENTER_NAME":"EARTH","MEAN_MOTION":"15.06389110","RCS_SIZE":"LARGE","TLE_LINE2":"2 47769  53.0503 200.9481 0001636  69.4116 290.7049 15.06389110 36002","CLASSIFICATION_TYPE":"U"}];
